QIANFAN-57              
1 62787U 25016C   25359.78645441  .00000185  00000+0  26739-3 0  9990
2 62787  88.9788 101.8547 0002541 111.8482 248.2940 13.50980604 48965
QIANFAN-58              
1 62788U 25016D   25359.83168169  .00000189  00000+0  27436-3 0  9993
2 62788  88.9757 101.6777 0012197 307.7276  52.2769 13.50982423 49010
QIANFAN-59              
1 62789U 25016E   25359.78226126  .00000177  00000+0  25577-3 0  9997
2 62789  88.9781 101.7595 0012614 312.1816  47.8263 13.50983945 49009
QIANFAN-60              
1 62790U 25016F   25359.81528139  .00000180  00000+0  26097-3 0  9994
2 62790  88.9762 101.7251 0014097 307.7132  52.2741 13.50987854 48998
QIANFAN-61              
1 62791U 25016G   25359.84810331  .00000177  00000+0  25541-3 0  9995
2 62791  88.9829 101.8935 0013029 307.2058  52.7903 13.50984284 49012
QIANFAN-62              
1 62792U 25016H   25359.85224885  .00000184  00000+0  26725-3 0  9993
2 62792  88.9776 101.7545 0014425 307.3530  52.6307 13.50980915 49000
QIANFAN-63              
1 62793U 25016J   25359.80283257  .00000186  00000+0  26935-3 0  9992
2 62793  88.9782 101.7120 0014530 313.4001  46.5940 13.50987621 49034
QIANFAN-64              
1 62794U 25016K   25359.76992503  .00000192  00000+0  27833-3 0  9994
2 62794  88.9769 101.6876 0012403 306.0006  53.9995 13.50982585 49022
